{
  "type": "FeatureCollection",
  "features": [
    {
      "type": "Feature",
      "properties": {
        "norad_id": 35744,
        "name": "IRIDIUM 33 DEB",
        "group": "iridium-33-debris",
        "lat": -32.40915868859757,
        "lon": 148.4635091087024,
        "alt_km": 650.5035690985669,
        "timestamp": "2025-12-11T05:00:26.693755+00:00",
        "meta_object_name": "IRIDIUM 33 DEB",
        "meta_object_id": "1997-051RX",
        "meta_epoch": "2025-12-10T16:36:57.938400",
        "meta_mean_motion": 14.70949157,
        "meta_eccentricity": 0.00200944,
        "meta_inclination": 86.329,
        "meta_ra_of_asc_node": 326.3608,
        "meta_arg_of_pericenter": 199.977,
        "meta_mean_anomaly": 160.0662,
        "meta_ephemeris_type": 0,
        "meta_classification_type": "U",
        "meta_norad_cat_id": 35744,
        "meta_element_set_no": 999,
        "meta_rev_at_epoch": 87301,
        "meta_bstar": 0.0019468967,
        "meta_mean_motion_dot": 0.00011996,
        "meta_mean_motion_ddot": 0,
        "tle_line1": "1 35744U 97051RX  25344.69233725  .00011996  00000+0  19469-2 0  9996",
        "tle_line2": "2 35744  86.3290 326.3608 0020094 199.9770 160.0662 14.70949157873015"
      },
      "geometry": {
        "type": "Point",
        "coordinates": [
          148.4635091087024,
          -32.40915868859757
        ]
      }
    },
    {
      "type": "Feature",
      "properties": {
        "norad_id": 35797,
        "name": "IRIDIUM 33 DEB",
        "group": "iridium-33-debris",
        "lat": -55.591023003826436,
        "lon": 156.0440901990657,
        "alt_km": 626.9292846179414,
        "timestamp": "2025-12-11T05:00:26.693765+00:00",
        "meta_object_name": "IRIDIUM 33 DEB",
        "meta_object_id": "1997-051SF",
        "meta_epoch": "2025-12-09T16:18:47.257632",
        "meta_mean_motion": 14.82622321,
        "meta_eccentricity": 0.00129609,
        "meta_inclination": 86.3364,
        "meta_ra_of_asc_node": 331.3786,
        "meta_arg_of_pericenter": 157.766,
        "meta_mean_anomaly": 202.4127,
        "meta_ephemeris_type": 0,
        "meta_classification_type": "U",
        "meta_norad_cat_id": 35797,
        "meta_element_set_no": 999,
        "meta_rev_at_epoch": 87295,
        "meta_bstar": 0.0027081228,
        "meta_mean_motion_dot": 0.00021904,
        "meta_mean_motion_ddot": 0,
        "tle_line1": "1 35797U 97051SF  25343.67971363  .00021904  00000+0  27081-2 0  9997",
        "tle_line2": "2 35797  86.3364 331.3786 0012960 157.7660 202.4127 14.82622321872954"
      },
      "geometry": {
        "type": "Point",
        "coordinates": [
          156.0440901990657,
          -55.591023003826436
        ]
      }
    },
    {
      "type": "Feature",
      "properties": {
        "norad_id": 35806,
        "name": "IRIDIUM 33 DEB",
        "group": "iridium-33-debris",
        "lat": -38.89844372368358,
        "lon": 18.345433839743144,
        "alt_km": 713.8952467021527,
        "timestamp": "2025-12-11T05:00:26.693775+00:00",
        "meta_object_name": "IRIDIUM 33 DEB",
        "meta_object_id": "1997-051SQ",
        "meta_epoch": "2025-12-10T20:56:47.285664",
        "meta_mean_motion": 14.5731398,
        "meta_eccentricity": 0.00160909,
        "meta_inclination": 86.344,
        "meta_ra_of_asc_node": 21.4504,
        "meta_arg_of_pericenter": 81.1516,
        "meta_mean_anomaly": 279.1514,
        "meta_ephemeris_type": 0,
        "meta_classification_type": "U",
        "meta_norad_cat_id": 35806,
        "meta_element_set_no": 999,
        "meta_rev_at_epoch": 86297,
        "meta_bstar": 0.0016785418,
        "meta_mean_motion_dot": 7.632e-05,
        "meta_mean_motion_ddot": 0,
        "tle_line1": "1 35806U 97051SQ  25344.87276951  .00007632  00000+0  16785-2 0  9993",
        "tle_line2": "2 35806  86.3440  21.4504 0016090  81.1516 279.1514 14.57313980862975"
      },
      "geometry": {
        "type": "Point",
        "coordinates": [
          18.345433839743144,
          -38.89844372368358
        ]
      }
    },
    {
      "type": "Feature",
      "properties": {
        "norad_id": 35809,
        "name": "IRIDIUM 33 DEB",
        "group": "iridium-33-debris",
        "lat": -44.693834205002005,
        "lon": 159.68788605732848,
        "alt_km": 643.7135871708779,
        "timestamp": "2025-12-11T05:00:26.693785+00:00",
        "meta_object_name": "IRIDIUM 33 DEB",
        "meta_object_id": "1997-051ST",
        "meta_epoch": "2025-12-10T16:35:56.421600",
        "meta_mean_motion": 14.75629145,
        "meta_eccentricity": 0.00097103,
        "meta_inclination": 86.329,
        "meta_ra_of_asc_node": 336.2813,
        "meta_arg_of_pericenter": 251.0565,
        "meta_mean_anomaly": 108.9602,
        "meta_ephemeris_type": 0,
        "meta_classification_type": "U",
        "meta_norad_cat_id": 35809,
        "meta_element_set_no": 999,
        "meta_rev_at_epoch": 86777,
        "meta_bstar": 0.0026432017,
        "meta_mean_motion_dot": 0.00018102,
        "meta_mean_motion_ddot": 0,
        "tle_line1": "1 35809U 97051ST  25344.69162525  .00018102  00000+0  26432-2 0  9991",
        "tle_line2": "2 35809  86.3290 336.2813 0009710 251.0565 108.9602 14.75629145867777"
      },
      "geometry": {
        "type": "Point",
        "coordinates": [
          159.68788605732848,
          -44.693834205002005
        ]
      }
    },
    {
      "type": "Feature",
      "properties": {
        "norad_id": 35846,
        "name": "IRIDIUM 33 DEB",
        "group": "iridium-33-debris",
        "lat": -5.16441893906001,
        "lon": -120.17763433894359,
        "alt_km": 738.7354755641554,
        "timestamp": "2025-12-11T05:00:26.693795+00:00",
        "meta_object_name": "IRIDIUM 33 DEB",
        "meta_object_id": "1997-051SW",
        "meta_epoch": "2025-12-10T23:09:37.939680",
        "meta_mean_motion": 14.43148066,
        "meta_eccentricity": 0.00186488,
        "meta_inclination": 86.3748,
        "meta_ra_of_asc_node": 59.598,
        "meta_arg_of_pericenter": 175.7823,
        "meta_mean_anomaly": 184.3539,
        "meta_ephemeris_type": 0,
        "meta_classification_type": "U",
        "meta_norad_cat_id": 35846,
        "meta_element_set_no": 999,
        "meta_rev_at_epoch": 71303,
        "meta_bstar": 0.00091839072,
        "meta_mean_motion_dot": 3.109e-05,
        "meta_mean_motion_ddot": 0,
        "tle_line1": "1 35846U 97051SW  25344.96502245  .00003109  00000+0  91839-3 0  9994",
        "tle_line2": "2 35846  86.3748  59.5980 0018648 175.7823 184.3539 14.43148066713034"
      },
      "geometry": {
        "type": "Point",
        "coordinates": [
          -120.17763433894359,
          -5.16441893906001
        ]
      }
    },
    {
      "type": "Feature",
      "properties": {
        "norad_id": 35848,
        "name": "IRIDIUM 33 DEB",
        "group": "iridium-33-debris",
        "lat": 18.732334261582565,
        "lon": -164.41307782064897,
        "alt_km": 629.8598769903138,
        "timestamp": "2025-12-11T05:00:26.693805+00:00",
        "meta_object_name": "IRIDIUM 33 DEB",
        "meta_object_id": "1997-051SY",
        "meta_epoch": "2025-12-10T20:09:33.946272",
        "meta_mean_motion": 14.78567105,
        "meta_eccentricity": 0.00074833,
        "meta_inclination": 86.391,
        "meta_ra_of_asc_node": 16.979,
        "meta_arg_of_pericenter": 196.6944,
        "meta_mean_anomaly": 163.4031,
        "meta_ephemeris_type": 0,
        "meta_classification_type": "U",
        "meta_norad_cat_id": 35848,
        "meta_element_set_no": 999,
        "meta_rev_at_epoch": 66662,
        "meta_bstar": 0.002426624,
        "meta_mean_motion_dot": 0.00017798,
        "meta_mean_motion_ddot": 0,
        "tle_line1": "1 35848U 97051SY  25344.83997623  .00017798  00000+0  24266-2 0  9998",
        "tle_line2": "2 35848  86.3910  16.9790 0007483 196.6944 163.4031 14.78567105666628"
      },
      "geometry": {
        "type": "Point",
        "coordinates": [
          -164.41307782064897,
          18.732334261582565
        ]
      }
    },
    {
      "type": "Feature",
      "properties": {
        "norad_id": 35850,
        "name": "IRIDIUM 33 DEB",
        "group": "iridium-33-debris",
        "lat": 54.11302293636585,
        "lon": 159.87937856981836,
        "alt_km": 625.847653880408,
        "timestamp": "2025-12-11T05:00:26.693815+00:00",
        "meta_object_name": "IRIDIUM 33 DEB",
        "meta_object_id": "1997-051TA",
        "meta_epoch": "2025-12-06T07:30:15.621984",
        "meta_mean_motion": 14.78601393,
        "meta_eccentricity": 0.00083892,
        "meta_inclination": 86.3487,
        "meta_ra_of_asc_node": 347.1693,
        "meta_arg_of_pericenter": 210.267,
        "meta_mean_anomaly": 149.8067,
        "meta_ephemeris_type": 0,
        "meta_classification_type": "U",
        "meta_norad_cat_id": 35850,
        "meta_element_set_no": 999,
        "meta_rev_at_epoch": 71262,
        "meta_bstar": 0.0028291764,
        "meta_mean_motion_dot": 0.00020775,
        "meta_mean_motion_ddot": 0,
        "tle_line1": "1 35850U 97051TA  25340.31268081  .00020775  00000+0  28292-2 0  9991",
        "tle_line2": "2 35850  86.3487 347.1693 0008389 210.2670 149.8067 14.78601393712623"
      },
      "geometry": {
        "type": "Point",
        "coordinates": [
          159.87937856981836,
          54.11302293636585
        ]
      }
    }
  ]
}